{
  "type": "FeatureCollection",
  "features": [
    {
      "type": "Feature",
      "properties": {
        "norad_id": 66505,
        "name": "STARLINK-34766",
        "group": "last-30-days",
        "lat": -39.3150883943323,
        "lon": 66.15637898529901,
        "alt_km": 346.90626178014736,
        "timestamp": "2025-12-02T15:49:05.949103+00:00",
        "meta_object_name": "STARLINK-34766",
        "meta_object_id": "2025-263W",
        "meta_epoch": "2025-12-02T06:00:02.999808",
        "meta_mean_motion": 15.75127399,
        "meta_eccentricity": 0.00016681,
        "meta_inclination": 42.9986,
        "meta_ra_of_asc_node": 187.1312,
        "meta_arg_of_pericenter": 262.7791,
        "meta_mean_anomaly": 183.2661,
        "meta_ephemeris_type": 0,
        "meta_classification_type": "U",
        "meta_norad_cat_id": 66505,
        "meta_element_set_no": 999,
        "meta_rev_at_epoch": 395,
        "meta_bstar": -0.001513166,
        "meta_mean_motion_dot": -0.00227643,
        "meta_mean_motion_ddot": 0,
        "tle_line1": "1 66505U 25263W   25336.25003472 -.00227643  00000+0 -15132-2 0  9991",
        "tle_line2": "2 66505  42.9986 187.1312 0001668 262.7791 183.2661 15.75127399  3953"
      },
      "geometry": {
        "type": "Point",
        "coordinates": [
          66.15637898529901,
          -39.3150883943323
        ]
      }
    },
    {
      "type": "Feature",
      "properties": {
        "norad_id": 66506,
        "name": "STARLINK-34765",
        "group": "last-30-days",
        "lat": -39.912512375465354,
        "lon": 68.50722622012053,
        "alt_km": 346.8848651438411,
        "timestamp": "2025-12-02T15:49:05.949116+00:00",
        "meta_object_name": "STARLINK-34765",
        "meta_object_id": "2025-263X",
        "meta_epoch": "2025-12-02T06:00:02.999808",
        "meta_mean_motion": 15.7511199,
        "meta_eccentricity": 0.00016503,
        "meta_inclination": 42.9985,
        "meta_ra_of_asc_node": 187.1271,
        "meta_arg_of_pericenter": 274.0228,
        "meta_mean_anomaly": 173.9134,
        "meta_ephemeris_type": 0,
        "meta_classification_type": "U",
        "meta_norad_cat_id": 66506,
        "meta_element_set_no": 999,
        "meta_rev_at_epoch": 395,
        "meta_bstar": -0.0010006849,
        "meta_mean_motion_dot": -0.00151944,
        "meta_mean_motion_ddot": 0,
        "tle_line1": "1 66506U 25263X   25336.25003472 -.00151944  00000+0 -10007-2 0  9998",
        "tle_line2": "2 66506  42.9985 187.1271 0001650 274.0228 173.9134 15.75111990  3950"
      },
      "geometry": {
        "type": "Point",
        "coordinates": [
          68.50722622012053,
          -39.912512375465354
        ]
      }
    },
    {
      "type": "Feature",
      "properties": {
        "norad_id": 66507,
        "name": "STARLINK-34767",
        "group": "last-30-days",
        "lat": -40.96308508265084,
        "lon": 73.33737757183873,
        "alt_km": 347.1140197366167,
        "timestamp": "2025-12-02T15:49:05.949126+00:00",
        "meta_object_name": "STARLINK-34767",
        "meta_object_id": "2025-263Y",
        "meta_epoch": "2025-12-02T06:00:02.999808",
        "meta_mean_motion": 15.75150985,
        "meta_eccentricity": 0.00015849,
        "meta_inclination": 42.9986,
        "meta_ra_of_asc_node": 187.1169,
        "meta_arg_of_pericenter": 275.5955,
        "meta_mean_anomaly": 176.193,
        "meta_ephemeris_type": 0,
        "meta_classification_type": "U",
        "meta_norad_cat_id": 66507,
        "meta_element_set_no": 999,
        "meta_rev_at_epoch": 395,
        "meta_bstar": -0.0018057287,
        "meta_mean_motion_dot": -0.00270482,
        "meta_mean_motion_ddot": 0,
        "tle_line1": "1 66507U 25263Y   25336.25003472 -.00270482  00000+0 -18057-2 0  9991",
        "tle_line2": "2 66507  42.9986 187.1169 0001584 275.5955 176.1930 15.75150985  3953"
      },
      "geometry": {
        "type": "Point",
        "coordinates": [
          73.33737757183873,
          -40.96308508265084
        ]
      }
    },
    {
      "type": "Feature",
      "properties": {
        "norad_id": 66508,
        "name": "STARLINK-35608",
        "group": "last-30-days",
        "lat": -42.14383253831575,
        "lon": 80.83778388368188,
        "alt_km": 347.0297953435802,
        "timestamp": "2025-12-02T15:49:05.949136+00:00",
        "meta_object_name": "STARLINK-35608",
        "meta_object_id": "2025-263Z",
        "meta_epoch": "2025-12-02T06:00:02.999808",
        "meta_mean_motion": 15.75145342,
        "meta_eccentricity": 0.00017146,
        "meta_inclination": 42.9986,
        "meta_ra_of_asc_node": 187.1026,
        "meta_arg_of_pericenter": 271.6568,
        "meta_mean_anomaly": 185.8903,
        "meta_ephemeris_type": 0,
        "meta_classification_type": "U",
        "meta_norad_cat_id": 66508,
        "meta_element_set_no": 999,
        "meta_rev_at_epoch": 395,
        "meta_bstar": -0.0018033402,
        "meta_mean_motion_dot": -0.00270078,
        "meta_mean_motion_ddot": 0,
        "tle_line1": "1 66508U 25263Z   25336.25003472 -.00270078  00000+0 -18033-2 0  9997",
        "tle_line2": "2 66508  42.9986 187.1026 0001714 271.6568 185.8903 15.75145342  3956"
      },
      "geometry": {
        "type": "Point",
        "coordinates": [
          80.83778388368188,
          -42.14383253831575
        ]
      }
    },
    {
      "type": "Feature",
      "properties": {
        "norad_id": 66509,
        "name": "STARLINK-35598",
        "group": "last-30-days",
        "lat": -42.92630336316137,
        "lon": 91.16629291156168,
        "alt_km": 347.2000793371926,
        "timestamp": "2025-12-02T15:49:05.949148+00:00",
        "meta_object_name": "STARLINK-35598",
        "meta_object_id": "2025-263AA",
        "meta_epoch": "2025-12-02T06:00:02.999808",
        "meta_mean_motion": 15.7514501,
        "meta_eccentricity": 0.00014683,
        "meta_inclination": 42.9985,
        "meta_ra_of_asc_node": 187.0817,
        "meta_arg_of_pericenter": 271.334,
        "meta_mean_anomaly": 193.8853,
        "meta_ephemeris_type": 0,
        "meta_classification_type": "U",
        "meta_norad_cat_id": 66509,
        "meta_element_set_no": 999,
        "meta_rev_at_epoch": 395,
        "meta_bstar": -0.001816607,
        "meta_mean_motion_dot": -0.00271983,
        "meta_mean_motion_ddot": 0,
        "tle_line1": "1 66509U 25263AA  25336.25003472 -.00271983  00000+0 -18166-2 0  9991",
        "tle_line2": "2 66509  42.9985 187.0817 0001468 271.3340 193.8853 15.75145010  3959"
      },
      "geometry": {
        "type": "Point",
        "coordinates": [
          91.16629291156168,
          -42.92630336316137
        ]
      }
    },
    {
      "type": "Feature",
      "properties": {
        "norad_id": 66510,
        "name": "STARLINK-35600",
        "group": "last-30-days",
        "lat": -42.427871557696434,
        "lon": 83.40550330214768,
        "alt_km": 346.96011805935177,
        "timestamp": "2025-12-02T15:49:05.949159+00:00",
        "meta_object_name": "STARLINK-35600",
        "meta_object_id": "2025-263AB",
        "meta_epoch": "2025-12-02T06:00:02.999808",
        "meta_mean_motion": 15.75147956,
        "meta_eccentricity": 0.00017159,
        "meta_inclination": 42.9987,
        "meta_ra_of_asc_node": 187.0968,
        "meta_arg_of_pericenter": 266.3173,
        "meta_mean_anomaly": 193.1394,
        "meta_ephemeris_type": 0,
        "meta_classification_type": "U",
        "meta_norad_cat_id": 66510,
        "meta_element_set_no": 999,
        "meta_rev_at_epoch": 395,
        "meta_bstar": -0.0016731659,
        "meta_mean_motion_dot": -0.00251199,
        "meta_mean_motion_ddot": 0,
        "tle_line1": "1 66510U 25263AB  25336.25003472 -.00251199  00000+0 -16732-2 0  9997",
        "tle_line2": "2 66510  42.9987 187.0968 0001715 266.3173 193.1394 15.75147956  3957"
      },
      "geometry": {
        "type": "Point",
        "coordinates": [
          83.40550330214768,
          -42.427871557696434
        ]
      }
    },
    {
      "type": "Feature",
      "properties": {
        "norad_id": 66511,
        "name": "STARLINK-35444",
        "group": "last-30-days",
        "lat": -42.81828793980051,
        "lon": 88.56098517792162,
        "alt_km": 347.1326810341825,
        "timestamp": "2025-12-02T15:49:05.949169+00:00",
        "meta_object_name": "STARLINK-35444",
        "meta_object_id": "2025-263AC",
        "meta_epoch": "2025-12-02T06:00:02.999808",
        "meta_mean_motion": 15.75145548,
        "meta_eccentricity": 0.00015769,
        "meta_inclination": 42.9984,
        "meta_ra_of_asc_node": 187.087,
        "meta_arg_of_pericenter": 267.0393,
        "meta_mean_anomaly": 196.2634,
        "meta_ephemeris_type": 0,
        "meta_classification_type": "U",
        "meta_norad_cat_id": 66511,
        "meta_element_set_no": 999,
        "meta_rev_at_epoch": 395,
        "meta_bstar": -0.0018620483,
        "meta_mean_motion_dot": -0.00278573,
        "meta_mean_motion_ddot": 0,
        "tle_line1": "1 66511U 25263AC  25336.25003472 -.00278573  00000+0 -18620-2 0  9991",
        "tle_line2": "2 66511  42.9984 187.0870 0001576 267.0393 196.2634 15.75145548  3950"
      },
      "geometry": {
        "type": "Point",
        "coordinates": [
          88.56098517792162,
          -42.81828793980051
        ]
      }
    }
  ]
}